0 CZ-4 DEB
1 32474U 07042D   13282.34775613  .00002135  00000-0  42500-3 0  5895
2 32474 098.7422 107.1002 0113292 353.8643 125.9997 14.59240220319638
0 CZ-4 DEB
1 32474U 07042D   13283.99973944  .00002768  00000-0  54747-3 0  5904
2 32474 098.7424 108.8390 0113318 348.8072 164.2894 14.59240875319871
0 CZ-4 DEB
1 32474U 07042D   13287.35354347  .00002890  00000-0  57127-3 0  5910
2 32474 098.7413 112.3712 0113144 338.4912 142.8421 14.59254355320364
0 CZ-4 DEB
1 32474U 07042D   13289.46158454  .00003446  00000-0  67865-3 0  5924
2 32474 098.7409 114.5916 0113079 332.0188 057.1222 14.59270995320670
0 CZ-4 DEB
1 32474U 07042D   13291.72966612  .00003289  00000-0  64830-3 0  5934
2 32474 098.7411 116.9805 0112912 324.9961 092.3246 14.59283483321001
0 CZ-4 DEB
1 32474U 07042D   13293.78641384  .00003881  00000-0  76279-3 0  5947
2 32474 098.7414 119.1466 0112809 318.6516 097.3696 14.59294199321306
0 CZ-4 DEB
1 32474U 07042D   13295.99957411  .00004563  00000-0  89463-3 0  5951
2 32474 098.7417 121.4775 0112712 311.8200 204.2227 14.59307587321626
